{
"type": "FeatureCollection",
"name": "mi-capa-ada",
"crs": { "type": "name", "properties": { "name": "urn:ogc:def:crs:OGC:1.3:CRS84" } },
"features": [
{ "type": "Feature", "properties": { "CodPunto": "PUAN", "Nombre": "PUAN", "Municipio": "Puan", "Tipo": "Laguna", "Laguna": "Laguna Puan", "Alerta": 1, "S2 Fecha": "5/25/2026", "S3 Fecha": "5/27/2026", "info": "Alerta verde, riesgo nulo a bajo y estable", "Acciones": "🎣✅, 🏊‍✅,🛶 ✅" }, "geometry": { "type": "Point", "coordinates": [ -62.801683474524971, -37.557180659074078 ] } },
{ "type": "Feature", "properties": { "CodPunto": "LCHIL", "Nombre": "Lag los Chilenos", "Municipio": "Saavedra", "Tipo": "Laguna", "Laguna": "Laguna Los Chilenos", "Alerta": 1, "S2 Fecha": "5/25/2026", "S3 Fecha": "5/27/2026", "info": "Alerta verde, riesgo nulo a bajo y estable", "Acciones": "🎣✅, 🏊‍✅,🛶 ✅" }, "geometry": { "type": "Point", "coordinates": [ -62.566592, -37.882703548219169 ] } },
{ "type": "Feature", "properties": { "CodPunto": "VDO", "Nombre": "Del Venado", "Municipio": "Guamini", "Tipo": "Laguna", "Laguna": "Laguna Del Venado", "Alerta": 2, "S2 Fecha": "5/25/2026", "S3 Fecha": "5/27/2026", "info": "Alerta amarillo, riesgo bajo a moderado, en disminución", "Acciones": "🎣✅, 🐟🚫, 🏊⚠️,🛶⚠, 🚱️" }, "geometry": { "type": "Point", "coordinates": [ -62.626374472478915, -37.064198424691064 ] } },
{ "type": "Feature", "properties": { "CodPunto": "BGRDE", "Nombre": "Lag. Blanca Grande", "Municipio": "Olavarria", "Tipo": "Laguna", "Laguna": "Laguna Blanca Grande", "Alerta": 1, "S2 Fecha": "5/22/2026", "S3 Fecha": "5/27/2026", "info": "Alerta verde, riesgo nulo a bajo y estable", "Acciones": "🎣✅, 🏊‍✅,🛶 ✅" }, "geometry": { "type": "Point", "coordinates": [ -60.898894948473597, -36.486416109942553 ] } },
{ "type": "Feature", "properties": { "CodPunto": "MULT", "Nombre": "Las Mulitas_25 de Mayo", "Municipio": "25 de Mayo", "Tipo": "Laguna", "Laguna": "Laguna Las Mulitas", "Alerta": 4, "S2 Fecha": "5/22/2026", "S3 Fecha": "5/27/2026", "info": "Alerta roja, riesgo alto, estable", "Acciones": "🎣🚫, 🐟🚫, 🏊🚫,🛶🚫, 🚱️" }, "geometry": { "type": "Point", "coordinates": [ -60.156361, -35.437639 ] } },
{ "type": "Feature", "properties": { "CodPunto": "RSN1", "Nombre": "Rio Salado Puente R3_2_25 de Mayo", "Municipio": "25 de Mayo", "Tipo": "Rio", "Laguna": "Rio Salado Puente Ruta Tres", "Alerta": 3, "S2 Fecha": "5/22/2026", "S3 Fecha": "5/27/2026", "info": "Alerta naranja, riesgo moderado a alto, estable", "Acciones": "🎣🚫, 🐟🚫, 🏊🚫,🛶🚫, 🚱️" }, "geometry": { "type": "Point", "coordinates": [ -59.71791297, -35.22213683 ] } },
{ "type": "Feature", "properties": { "CodPunto": "PSM1", "Nombre": "Laguna del Parque Gral. San Martín", "Municipio": "9 de Julio", "Tipo": "Laguna", "Laguna": "Gral San Martin", "Alerta": 1, "S2 Fecha": "5/22/2026", "S3 Fecha": "5/27/2026", "info": "Alerta verde, riesgo nulo a bajo y estable", "Acciones": "🎣✅, 🏊‍✅,🛶 ✅" }, "geometry": { "type": "Point", "coordinates": [ -60.876439738442791, -35.438888971259274 ] } },
{ "type": "Feature", "properties": { "CodPunto": "EPEC", "Nombre": "Epecuen_Adolfo Alsina", "Municipio": "Adolfo Alsina", "Tipo": "Laguna", "Laguna": "Laguna Epecuen", "Alerta": 1, "S2 Fecha": "5/25/2026", "S3 Fecha": "5/27/2026", "info": "Alerta verde, riesgo nulo a bajo y estable", "Acciones": "🎣✅, 🏊‍✅,🛶 ✅" }, "geometry": { "type": "Point", "coordinates": [ -62.8466267, -37.14601186 ] } },
{ "type": "Feature", "properties": { "CodPunto": "RIO2", "Nombre": "Puente Achupallas Indacochea RIo Salado_Alberti", "Municipio": "Alberti", "Tipo": "Rio", "Laguna": "Puente Achupallas Indacochea Rio Salado", "Alerta": 3, "S2 Fecha": "5/22/2026", "S3 Fecha": "5/27/2026", "info": "Alerta naranja, riesgo moderado a alto, en disminución", "Acciones": "🎣🚫, 🐟🚫, 🏊🚫,🛶🚫, 🚱️" }, "geometry": { "type": "Point", "coordinates": [ -60.110403, -35.0887449 ] } },
{ "type": "Feature", "properties": { "CodPunto": "RIO1", "Nombre": "Rio Salado - Puente Ladaga, Alberti_Alberti", "Municipio": "Alberti", "Tipo": "Rio", "Laguna": "Rio Salado Puente Ladaga Alberti", "Alerta": 3, "S2 Fecha": "5/22/2026", "S3 Fecha": "5/27/2026", "info": "Alerta naranja, riesgo moderado a alto, estable", "Acciones": "🎣🚫, 🐟🚫, 🏊🚫,🛶🚫, 🚱️" }, "geometry": { "type": "Point", "coordinates": [ -60.24290343, -35.06801733 ] } },
{ "type": "Feature", "properties": { "CodPunto": "RIO3", "Nombre": "Rio Salado Ruta 5_Alberti", "Municipio": "Alberti", "Tipo": "Rio", "Laguna": "Rio Salado Ruta Cinco", "Alerta": 3, "S2 Fecha": "5/22/2026", "S3 Fecha": "5/27/2026", "info": "Alerta naranja, riesgo moderado a alto, en disminución", "Acciones": "🎣🚫, 🐟🚫, 🏊🚫,🛶🚫, 🚱️" }, "geometry": { "type": "Point", "coordinates": [ -60.292083, -35.061111 ] } },
{ "type": "Feature", "properties": { "CodPunto": "RDLP", "Nombre": "Rio de La Plata 1_Avellaneda", "Municipio": "Avellaneda", "Tipo": "Rio", "Laguna": "Rio De La Plata", "Alerta": 1, "S2 Fecha": "5/22/2026", "S3 Fecha": "5/26/2026", "info": "Alerta verde, riesgo nulo a bajo y estable", "Acciones": "🎣✅, 🏊‍✅,🛶 ✅" }, "geometry": { "type": "Point", "coordinates": [ -58.29888937, -34.66026369 ] } },
{ "type": "Feature", "properties": { "CodPunto": "SALA2", "Nombre": "La Saladita Sur_Avellaneda", "Municipio": "Avellaneda", "Tipo": "Laguna", "Laguna": "Laguna La Saladita Sur", "Alerta": 4, "S2 Fecha": "5/22/2026", "S3 Fecha": "5/27/2026", "info": "Alerta roja, riesgo alto, estable", "Acciones": "🎣🚫, 🐟🚫, 🏊🚫,🛶🚫, 🚱️" }, "geometry": { "type": "Point", "coordinates": [ -58.34046988, -34.67242443 ] } },
{ "type": "Feature", "properties": { "CodPunto": "LAB", "Nombre": "La Brava_Balcarce", "Municipio": "Balcarce", "Tipo": "Laguna", "Laguna": "Laguna La Brava", "Alerta": 4, "S2 Fecha": null, "S3 Fecha": "5/27/2026", "info": "Alerta roja, riesgo alto, estable", "Acciones": "🎣🚫, 🐟🚫, 🏊🚫,🛶🚫, 🚱️" }, "geometry": { "type": "Point", "coordinates": [ -57.97720112, -37.88000183 ] } },
{ "type": "Feature", "properties": { "CodPunto": "ELCH", "Nombre": "El Chifle_Benito Juarez", "Municipio": "Benito Juarez", "Tipo": "Laguna", "Laguna": "Laguna El Chifle", "Alerta": 4, "S2 Fecha": "5/22/2026", "S3 Fecha": "5/27/2026", "info": "Alerta roja, riesgo alto, estable", "Acciones": "🎣🚫, 🐟🚫, 🏊🚫,🛶🚫, 🚱️" }, "geometry": { "type": "Point", "coordinates": [ -59.79925, -37.406806 ] } },
{ "type": "Feature", "properties": { "CodPunto": "SANA", "Nombre": "San Antonio,_Benito Juarez", "Municipio": "Benito Juarez", "Tipo": "Laguna", "Laguna": "Laguna San Antonio", "Alerta": 4, "S2 Fecha": "5/22/2026", "S3 Fecha": "5/27/2026", "info": "Alerta roja, riesgo alto, estable", "Acciones": "🎣🚫, 🐟🚫, 🏊🚫,🛶🚫, 🚱️" }, "geometry": { "type": "Point", "coordinates": [ -59.874806, -37.629917 ] } },
{ "type": "Feature", "properties": { "CodPunto": "BALN", "Nombre": "Rio de La Plata Balneario_Berazategui", "Municipio": "Berazategui", "Tipo": "Rio", "Laguna": "Rio De La Plata", "Alerta": 1, "S2 Fecha": "5/22/2026", "S3 Fecha": "5/26/2026", "info": "Alerta verde, riesgo nulo a bajo y estable", "Acciones": "🎣✅, 🏊‍✅,🛶 ✅" }, "geometry": { "type": "Point", "coordinates": [ -58.09891056, -34.73645769 ] } },
{ "type": "Feature", "properties": { "CodPunto": "SGO", "Nombre": "Rio Parana 1_Berisso", "Municipio": "Berisso", "Tipo": "Rio", "Laguna": "Rio Parana", "Alerta": 1, "S2 Fecha": null, "S3 Fecha": "5/27/2026", "info": "Alerta verde, riesgo nulo a bajo y estable", "Acciones": "🎣✅, 🏊‍✅,🛶 ✅" }, "geometry": { "type": "Point", "coordinates": [ -57.88881991, -34.85225838 ] } },
{ "type": "Feature", "properties": { "CodPunto": "BERI", "Nombre": "Rio de La Plata Balnerio2_Berisso", "Municipio": "Berisso", "Tipo": "Rio", "Laguna": "Rio De La Plata", "Alerta": 1, "S2 Fecha": "5/22/2026", "S3 Fecha": "5/26/2026", "info": "Alerta verde, riesgo nulo a bajo y estable", "Acciones": "🎣✅, 🏊‍✅,🛶 ✅" }, "geometry": { "type": "Point", "coordinates": [ -57.737605251849139, -34.910371474377911 ] } },
{ "type": "Feature", "properties": { "CodPunto": "PALO", "Nombre": "Rio de La Plata Palo Blanco_Berisso", "Municipio": "Berisso", "Tipo": "Rio", "Laguna": "Rio De La Plata", "Alerta": 1, "S2 Fecha": "5/22/2026", "S3 Fecha": "5/26/2026", "info": "Alerta verde, riesgo nulo a bajo y estable", "Acciones": "🎣✅, 🏊‍✅,🛶 ✅" }, "geometry": { "type": "Point", "coordinates": [ -57.83581294, -34.85263799 ] } },
{ "type": "Feature", "properties": { "CodPunto": "RIO4", "Nombre": "Rio Santiago_Berisso", "Municipio": "Berisso", "Tipo": "Rio", "Laguna": "Rio Santiago", "Alerta": 1, "S2 Fecha": null, "S3 Fecha": "5/27/2026", "info": "Alerta verde, riesgo nulo a bajo y estable", "Acciones": "🎣✅, 🏊‍✅,🛶 ✅" }, "geometry": { "type": "Point", "coordinates": [ -57.87943121, -34.83406603 ] } },
{ "type": "Feature", "properties": { "CodPunto": "BAL", "Nombre": "Rio_de_la_Plata_LaBalandra", "Municipio": "Berisso", "Tipo": "Rio", "Laguna": "Rio De La Plata", "Alerta": 1, "S2 Fecha": "5/22/2026", "S3 Fecha": "5/26/2026", "info": "Alerta verde, riesgo nulo a bajo y estable", "Acciones": "🎣✅, 🏊‍✅,🛶 ✅" }, "geometry": { "type": "Point", "coordinates": [ -57.713183362077423, -34.918873122984017 ] } },
{ "type": "Feature", "properties": { "CodPunto": "JCHO", "Nombre": "Juancho_Bolivar", "Municipio": "Bolivar", "Tipo": "Laguna", "Laguna": "Laguna De Juancho", "Alerta": 3, "S2 Fecha": "5/22/2026", "S3 Fecha": "5/27/2026", "info": "Alerta naranja, riesgo moderado a alto, estable", "Acciones": "🎣🚫, 🐟🚫, 🏊🚫,🛶🚫, 🚱️" }, "geometry": { "type": "Point", "coordinates": [ -61.50824282, -36.69663593 ] } },
{ "type": "Feature", "properties": { "CodPunto": "BRAG", "Nombre": "de Bragado_Bragado", "Municipio": "Bragado", "Tipo": "Laguna", "Laguna": "Laguna De Bragado", "Alerta": 3, "S2 Fecha": "5/22/2026", "S3 Fecha": "5/27/2026", "info": "Alerta naranja, riesgo moderado a alto, en disminución", "Acciones": "🎣🚫, 🐟🚫, 🏊🚫,🛶🚫, 🚱️" }, "geometry": { "type": "Point", "coordinates": [ -60.47505778, -35.08147353 ] } },
{ "type": "Feature", "properties": { "CodPunto": "ROCH", "Nombre": "Camping De Rocha, Rocha_Bragado", "Municipio": "Bragado", "Tipo": "Laguna", "Laguna": "Camping Laguna De Rocha", "Alerta": 3, "S2 Fecha": "5/22/2026", "S3 Fecha": "5/27/2026", "info": "Alerta naranja, riesgo moderado a alto, en aumento", "Acciones": "🎣🚫, 🐟🚫, 🏊🚫,🛶🚫, 🚱️" }, "geometry": { "type": "Point", "coordinates": [ -60.68567662, -34.69990796 ] } },
{ "type": "Feature", "properties": { "CodPunto": "ADE", "Nombre": "Adela_Chascomús", "Municipio": "Chascomus", "Tipo": "Laguna", "Laguna": "Laguna Adela", "Alerta": 1, "S2 Fecha": "5/22/2026", "S3 Fecha": "5/27/2026", "info": "Alerta verde, riesgo nulo a bajo y estable", "Acciones": "🎣✅, 🏊‍✅,🛶 ✅" }, "geometry": { "type": "Point", "coordinates": [ -57.99356866, -35.68609728 ] } },
{ "type": "Feature", "properties": { "CodPunto": "BURR", "Nombre": "del Burro_Chascomús", "Municipio": "Chascomus", "Tipo": "Laguna", "Laguna": "Laguna Del Burro", "Alerta": 4, "S2 Fecha": null, "S3 Fecha": "5/27/2026", "info": "Alerta roja, riesgo alto, estable", "Acciones": "🎣🚫, 🐟🚫, 🏊🚫,🛶🚫, 🚱️" }, "geometry": { "type": "Point", "coordinates": [ -57.92938006, -35.68509433 ] } },
{ "type": "Feature", "properties": { "CodPunto": "ESQ1", "Nombre": "Esquivel_Chascomús", "Municipio": "Chascomus", "Tipo": "Laguna", "Laguna": "Laguna Esquivel", "Alerta": 4, "S2 Fecha": "5/22/2026", "S3 Fecha": "5/27/2026", "info": "Alerta roja, riesgo alto, estable", "Acciones": "🎣🚫, 🐟🚫, 🏊🚫,🛶🚫, 🚱️" }, "geometry": { "type": "Point", "coordinates": [ -58.22290918, -35.79297381 ] } },
{ "type": "Feature", "properties": { "CodPunto": "CHAS2", "Nombre": "de Chascomus 2_Chascomús", "Municipio": "Chascomus", "Tipo": "Laguna", "Laguna": "Laguna De Chascomus", "Alerta": 3, "S2 Fecha": "5/22/2026", "S3 Fecha": "5/27/2026", "info": "Alerta naranja, riesgo moderado a alto, estable", "Acciones": "🎣🚫, 🐟🚫, 🏊🚫,🛶🚫, 🚱️" }, "geometry": { "type": "Point", "coordinates": [ -58.00152607, -35.59030192 ] } },
{ "type": "Feature", "properties": { "CodPunto": "CHASMUELLE", "Nombre": "de Chascomus Muelle_Chascomús", "Municipio": "Chascomus", "Tipo": "Laguna", "Laguna": "Laguna De Chascomus", "Alerta": 3, "S2 Fecha": "5/22/2026", "S3 Fecha": "5/27/2026", "info": "Alerta naranja, riesgo moderado a alto, estable", "Acciones": "🎣🚫, 🐟🚫, 🏊🚫,🛶🚫, 🚱️" }, "geometry": { "type": "Point", "coordinates": [ -58.027604, -35.59141631 ] } },
{ "type": "Feature", "properties": { "CodPunto": "LIM1", "Nombre": "La Limpia_Chascomús", "Municipio": "Chascomus", "Tipo": "Laguna", "Laguna": "Laguna La Limpia", "Alerta": 1, "S2 Fecha": null, "S3 Fecha": "5/27/2026", "info": "Alerta verde, riesgo nulo a bajo y estable", "Acciones": "🎣✅, 🏊‍✅,🛶 ✅" }, "geometry": { "type": "Point", "coordinates": [ -57.81513465, -35.60999172 ] } },
{ "type": "Feature", "properties": { "CodPunto": "MUL1", "Nombre": "Las Mulas_Chascomús", "Municipio": "Chascomus", "Tipo": "Laguna", "Laguna": "Laguna Las Mulas", "Alerta": 1, "S2 Fecha": null, "S3 Fecha": "5/27/2026", "info": "Alerta verde, riesgo nulo a bajo y estable", "Acciones": "🎣✅, 🏊‍✅,🛶 ✅" }, "geometry": { "type": "Point", "coordinates": [ -57.90108163, -35.53351702 ] } },
{ "type": "Feature", "properties": { "CodPunto": "VIT1", "Nombre": "Vitel_Chascomús", "Municipio": "Chascomus", "Tipo": "Laguna", "Laguna": "Laguna Vitel", "Alerta": 4, "S2 Fecha": "5/22/2026", "S3 Fecha": "5/27/2026", "info": "Alerta roja, riesgo alto, en disminución", "Acciones": "🎣🚫, 🐟🚫, 🏊🚫,🛶🚫, 🚱️" }, "geometry": { "type": "Point", "coordinates": [ -58.110802, -35.52930325 ] } },
{ "type": "Feature", "properties": { "CodPunto": "YAS1", "Nombre": "Yasica_Chascomús", "Municipio": "Chascomus", "Tipo": "Laguna", "Laguna": "Laguna Yasica", "Alerta": 1, "S2 Fecha": null, "S3 Fecha": "5/27/2026", "info": "Alerta verde, riesgo nulo a bajo y estable", "Acciones": "🎣✅, 🏊‍✅,🛶 ✅" }, "geometry": { "type": "Point", "coordinates": [ -57.90670928, -35.5762537 ] } },
{ "type": "Feature", "properties": { "CodPunto": "RSCH", "Nombre": "Rio Salado Zona de recreo_Chivilcoy", "Municipio": "Chivilcoy", "Tipo": "Rio", "Laguna": "Rio Salado Zona De Recreo", "Alerta": 3, "S2 Fecha": "5/22/2026", "S3 Fecha": "5/27/2026", "info": "Alerta naranja, riesgo moderado a alto, estable", "Acciones": "🎣🚫, 🐟🚫, 🏊🚫,🛶🚫, 🚱️" }, "geometry": { "type": "Point", "coordinates": [ -59.95569496, -35.12473955 ] } },
{ "type": "Feature", "properties": { "CodPunto": "LGC", "Nombre": "Lago_Colon", "Municipio": "Colon", "Tipo": "Laguna", "Laguna": "Lago Colon", "Alerta": 3, "S2 Fecha": "5/22/2026", "S3 Fecha": "5/27/2026", "info": "Alerta naranja, riesgo moderado a alto, estable", "Acciones": "🎣🚫, 🐟🚫, 🏊🚫,🛶🚫, 🚱️" }, "geometry": { "type": "Point", "coordinates": [ -61.097298470306143, -33.920615779283416 ] } },
{ "type": "Feature", "properties": { "CodPunto": "DLP1", "Nombre": "Dique Las Piedras 1_Coronel Pringles", "Municipio": "Coronel Pringles", "Tipo": "Dique", "Laguna": "Dique Las Piedras", "Alerta": 2, "S2 Fecha": "5/25/2026", "S3 Fecha": "5/27/2026", "info": "Alerta amarillo, riesgo bajo a moderado, en disminución", "Acciones": "🎣✅, 🐟🚫, 🏊⚠️,🛶⚠, 🚱️" }, "geometry": { "type": "Point", "coordinates": [ -61.74454826, -38.41975441 ] } },
{ "type": "Feature", "properties": { "CodPunto": "ELJ", "Nombre": "El Juancho_Daireaux", "Municipio": "Daireaux", "Tipo": "Laguna", "Laguna": "Laguna El Juancho", "Alerta": 1, "S2 Fecha": "5/22/2026", "S3 Fecha": "5/27/2026", "info": "Alerta verde, riesgo nulo a bajo y estable", "Acciones": "🎣✅, 🏊‍✅,🛶 ✅" }, "geometry": { "type": "Point", "coordinates": [ -61.55883592, -36.70867129 ] } },
{ "type": "Feature", "properties": { "CodPunto": "CLUB", "Nombre": "Rio de La Plata Club Pesca_Ensenada", "Municipio": "Ensenada", "Tipo": "Rio", "Laguna": "Rio De La Plata", "Alerta": 1, "S2 Fecha": "5/22/2026", "S3 Fecha": "5/26/2026", "info": "Alerta verde, riesgo nulo a bajo y estable", "Acciones": "🎣✅, 🏊‍✅,🛶 ✅" }, "geometry": { "type": "Point", "coordinates": [ -57.94353351, -34.82575485 ] } },
{ "type": "Feature", "properties": { "CodPunto": "CLUBR", "Nombre": "Rio Santiago Club_Ensenada", "Municipio": "Ensenada", "Tipo": "Rio", "Laguna": "Rio Santiago", "Alerta": 1, "S2 Fecha": null, "S3 Fecha": "5/27/2026", "info": "Alerta verde, riesgo nulo a bajo y estable", "Acciones": "🎣✅, 🏊‍✅,🛶 ✅" }, "geometry": { "type": "Point", "coordinates": [ -57.918268, -34.8397494 ] } },
{ "type": "Feature", "properties": { "CodPunto": "PERG", "Nombre": "Rio de La Plata Pergola_Ensenada", "Municipio": "Ensenada", "Tipo": "Rio", "Laguna": "Rio De La Plata", "Alerta": 1, "S2 Fecha": "5/22/2026", "S3 Fecha": "5/26/2026", "info": "Alerta verde, riesgo nulo a bajo y estable", "Acciones": "🎣✅, 🏊‍✅,🛶 ✅" }, "geometry": { "type": "Point", "coordinates": [ -57.97633847, -34.79811973 ] } },
{ "type": "Feature", "properties": { "CodPunto": "PARA", "Nombre": "Rio de La Plata Parador_Ensenada", "Municipio": "Ensenada", "Tipo": "Rio", "Laguna": "Rio De La Plata", "Alerta": 1, "S2 Fecha": "5/22/2026", "S3 Fecha": "5/26/2026", "info": "Alerta verde, riesgo nulo a bajo y estable", "Acciones": "🎣✅, 🏊‍✅,🛶 ✅" }, "geometry": { "type": "Point", "coordinates": [ -57.94851535, -34.8273528 ] } },
{ "type": "Feature", "properties": { "CodPunto": "CARI", "Nombre": "CA (Canal Arias y Rio Parana)_Escobar", "Municipio": "Escobar", "Tipo": "Rio", "Laguna": "Interseccion Canal Arias En Rio Parana", "Alerta": 1, "S2 Fecha": "5/22/2026", "S3 Fecha": "5/27/2026", "info": "Alerta verde, riesgo nulo a bajo y estable", "Acciones": "🎣✅, 🏊‍✅,🛶 ✅" }, "geometry": { "type": "Point", "coordinates": [ -58.65464648, -34.27289635 ] } },
{ "type": "Feature", "properties": { "CodPunto": "RSM2", "Nombre": "Rio Salado Puente R3_1_General Belgrano", "Municipio": "General Belgrano", "Tipo": "Rio", "Laguna": "Rio Salado Puente Ruta Tres", "Alerta": 1, "S2 Fecha": "5/22/2026", "S3 Fecha": "5/27/2026", "info": "Alerta verde, riesgo nulo a bajo y estable", "Acciones": "🎣✅, 🏊‍✅,🛶 ✅" }, "geometry": { "type": "Point", "coordinates": [ -58.84991815, -35.65020014 ] } },
{ "type": "Feature", "properties": { "CodPunto": "CARB", "Nombre": "El Carbon_General Juan Madariaga", "Municipio": "General Juan Madariaga", "Tipo": "Laguna", "Laguna": "Laguna El Carbon", "Alerta": 1, "S2 Fecha": null, "S3 Fecha": "5/27/2026", "info": "Alerta verde, riesgo nulo a bajo y estable", "Acciones": "🎣✅, 🏊‍✅,🛶 ✅" }, "geometry": { "type": "Point", "coordinates": [ -57.08335256, -36.94859847 ] } },
{ "type": "Feature", "properties": { "CodPunto": "LARG", "Nombre": "La Larga_General Juan Madariaga", "Municipio": "General Juan Madariaga", "Tipo": "Laguna", "Laguna": "Laguna La Larga", "Alerta": 1, "S2 Fecha": null, "S3 Fecha": "5/27/2026", "info": "Alerta verde, riesgo nulo a bajo y estable", "Acciones": "🎣✅, 🏊‍✅,🛶 ✅" }, "geometry": { "type": "Point", "coordinates": [ -57.11466679, -36.94659258 ] } },
{ "type": "Feature", "properties": { "CodPunto": "HORC", "Nombre": "Los Horcones_General Juan Madariaga", "Municipio": "General Juan Madariaga", "Tipo": "Laguna", "Laguna": "Laguna Los Horcones", "Alerta": 1, "S2 Fecha": null, "S3 Fecha": "5/27/2026", "info": "Alerta verde, riesgo nulo a bajo y estable", "Acciones": "🎣✅, 🏊‍✅,🛶 ✅" }, "geometry": { "type": "Point", "coordinates": [ -56.9915272, -37.06103997 ] } },
{ "type": "Feature", "properties": { "CodPunto": "SALG", "Nombre": "Reserva natural Salada Grande_General Lavalle", "Municipio": "General Lavalle", "Tipo": "Laguna", "Laguna": "Reserva Natural Laguna Salada Grande", "Alerta": 3, "S2 Fecha": null, "S3 Fecha": "5/27/2026", "info": "Alerta naranja, riesgo moderado a alto, estable", "Acciones": "🎣🚫, 🐟🚫, 🏊🚫,🛶🚫, 🚱️" }, "geometry": { "type": "Point", "coordinates": [ -56.961667, -36.891111 ] } },
{ "type": "Feature", "properties": { "CodPunto": "LPD1", "Nombre": "Los Padres_General Pueyrredon", "Municipio": "General Pueyrredon", "Tipo": "Laguna", "Laguna": "Laguna De Los Padres", "Alerta": 3, "S2 Fecha": "5/26/2026", "S3 Fecha": "5/27/2026", "info": "Alerta naranja, riesgo moderado a alto, estable", "Acciones": "🎣🚫, 🐟🚫, 🏊🚫,🛶🚫, 🚱️" }, "geometry": { "type": "Point", "coordinates": [ -57.73326215, -37.93583254 ] } },
{ "type": "Feature", "properties": { "CodPunto": "SALP", "Nombre": "Salada Gral Pinto", "Municipio": "General Pinto", "Tipo": "Laguna", "Laguna": "Laguna La Salada", "Alerta": 1, "S2 Fecha": "5/22/2026", "S3 Fecha": "5/27/2026", "info": "Alerta verde, riesgo nulo a bajo y estable", "Acciones": "🎣✅, 🏊‍✅,🛶 ✅" }, "geometry": { "type": "Point", "coordinates": [ -62.187931640617414, -34.738329701347212 ] } },
{ "type": "Feature", "properties": { "CodPunto": "CARL", "Nombre": "Carlota", "Municipio": "General La Madrid", "Tipo": "Laguna", "Laguna": "Laguna La Carlota", "Alerta": 1, "S2 Fecha": "5/22/2026", "S3 Fecha": "5/27/2026", "info": "Alerta verde, riesgo nulo a bajo y estable", "Acciones": "🎣✅, 🏊‍✅,🛶 ✅" }, "geometry": { "type": "Point", "coordinates": [ -61.394456552632938, -37.676306107271003 ] } },
{ "type": "Feature", "properties": { "CodPunto": "ALS1", "Nombre": "Alsina1_Guaminí", "Municipio": "Guamini", "Tipo": "Laguna", "Laguna": "Laguna Alsina", "Alerta": 3, "S2 Fecha": "5/22/2026", "S3 Fecha": "5/27/2026", "info": "Alerta naranja, riesgo moderado a alto, en disminución", "Acciones": "🎣🚫, 🐟🚫, 🏊🚫,🛶🚫, 🚱️" }, "geometry": { "type": "Point", "coordinates": [ -62.19693303, -36.876499 ] } },
{ "type": "Feature", "properties": { "CodPunto": "ALS2", "Nombre": "Alsina2_Guaminí", "Municipio": "Guamini", "Tipo": "Laguna", "Laguna": "Laguna Alsina", "Alerta": 3, "S2 Fecha": "5/22/2026", "S3 Fecha": "5/27/2026", "info": "Alerta naranja, riesgo moderado a alto, en disminución", "Acciones": "🎣🚫, 🐟🚫, 🏊🚫,🛶🚫, 🚱️" }, "geometry": { "type": "Point", "coordinates": [ -62.0239804, -36.84172891 ] } },
{ "type": "Feature", "properties": { "CodPunto": "COCH", "Nombre": "Cochico_Guaminí", "Municipio": "Guamini", "Tipo": "Laguna", "Laguna": "Laguna Cochico", "Alerta": 1, "S2 Fecha": "5/22/2026", "S3 Fecha": "5/27/2026", "info": "Alerta verde, riesgo nulo a bajo y estable", "Acciones": "🎣✅, 🏊‍✅,🛶 ✅" }, "geometry": { "type": "Point", "coordinates": [ -62.32571767, -36.92433273 ] } },
{ "type": "Feature", "properties": { "CodPunto": "DMONTE", "Nombre": "del Monte_Guaminí", "Municipio": "Guamini", "Tipo": "Laguna", "Laguna": "Laguna Del Monte", "Alerta": 1, "S2 Fecha": "5/22/2026", "S3 Fecha": "5/27/2026", "info": "Alerta verde, riesgo nulo a bajo y estable", "Acciones": "🎣✅, 🏊‍✅,🛶 ✅" }, "geometry": { "type": "Point", "coordinates": [ -62.476723, -37.020806 ] } },
{ "type": "Feature", "properties": { "CodPunto": "CAR1", "Nombre": "Carpincho_Junin", "Municipio": "Junin", "Tipo": "Laguna", "Laguna": "Laguna El Carpincho", "Alerta": 3, "S2 Fecha": "5/22/2026", "S3 Fecha": "5/27/2026", "info": "Alerta naranja, riesgo moderado a alto, estable", "Acciones": "🎣🚫, 🐟🚫, 🏊🚫,🛶🚫, 🚱️" }, "geometry": { "type": "Point", "coordinates": [ -60.89518109, -34.57554254 ] } },
{ "type": "Feature", "properties": { "CodPunto": "GOMP", "Nombre": "Gomez_Junin", "Municipio": "Junin", "Tipo": "Laguna", "Laguna": "Laguna Gomez", "Alerta": 3, "S2 Fecha": "5/22/2026", "S3 Fecha": "5/27/2026", "info": "Alerta naranja, riesgo moderado a alto, en disminución", "Acciones": "🎣🚫, 🐟🚫, 🏊🚫,🛶🚫, 🚱️" }, "geometry": { "type": "Point", "coordinates": [ -61.13782807, -34.65028994 ] } },
{ "type": "Feature", "properties": { "CodPunto": "GOMEZ1", "Nombre": "Gomez 1_Junin", "Municipio": "Junin", "Tipo": "Laguna", "Laguna": "Laguna Gomez", "Alerta": 3, "S2 Fecha": "5/22/2026", "S3 Fecha": "5/27/2026", "info": "Alerta naranja, riesgo moderado a alto, en disminución", "Acciones": "🎣🚫, 🐟🚫, 🏊🚫,🛶🚫, 🚱️" }, "geometry": { "type": "Point", "coordinates": [ -61.03158186, -34.66692215 ] } },
{ "type": "Feature", "properties": { "CodPunto": "GOMEZ2", "Nombre": "Gomez 2_Junin", "Municipio": "Junin", "Tipo": "Laguna", "Laguna": "Laguna Gomez", "Alerta": 3, "S2 Fecha": "5/22/2026", "S3 Fecha": "5/27/2026", "info": "Alerta naranja, riesgo moderado a alto, en disminución", "Acciones": "🎣🚫, 🐟🚫, 🏊🚫,🛶🚫, 🚱️" }, "geometry": { "type": "Point", "coordinates": [ -61.06077876, -34.65421815 ] } },
{ "type": "Feature", "properties": { "CodPunto": "MCHJ", "Nombre": "Mar Chiquita Junin_Junin", "Municipio": "Junin", "Tipo": "Laguna", "Laguna": "Laguna Mar Chiquita Junin", "Alerta": 3, "S2 Fecha": "5/22/2026", "S3 Fecha": "5/27/2026", "info": "Alerta naranja, riesgo moderado a alto, en aumento", "Acciones": "🎣🚫, 🐟🚫, 🏊🚫,🛶🚫, 🚱️" }, "geometry": { "type": "Point", "coordinates": [ -61.1695184, -34.44942197 ] } },
{ "type": "Feature", "properties": { "CodPunto": "LPR1", "Nombre": "del Paraiso_Laprida", "Municipio": "Laprida", "Tipo": "Laguna", "Laguna": "Laguna El Paraiso", "Alerta": 1, "S2 Fecha": "5/22/2026", "S3 Fecha": "5/27/2026", "info": "Alerta verde, riesgo nulo a bajo pero en aumento", "Acciones": "🎣✅, 🏊‍✅,🛶 ✅" }, "geometry": { "type": "Point", "coordinates": [ -60.79754351, -37.569146 ] } },
{ "type": "Feature", "properties": { "CodPunto": "LPR3", "Nombre": "Quilla Lauquen_Laprida", "Municipio": "Laprida", "Tipo": "Laguna", "Laguna": "Quilla Lauquen", "Alerta": 2, "S2 Fecha": "5/22/2026", "S3 Fecha": "5/27/2026", "info": "Alerta amarillo, riesgo bajo a moderado, en aumento", "Acciones": "🎣✅, 🐟🚫, 🏊⚠️,🛶⚠, 🚱️" }, "geometry": { "type": "Point", "coordinates": [ -60.496604, -37.48183191 ] } },
{ "type": "Feature", "properties": { "CodPunto": "DIFM", "Nombre": "del Difunto Manuel_Las Flores", "Municipio": "Las Flores", "Tipo": "Laguna", "Laguna": "Laguna Del Difunto Manuel", "Alerta": 1, "S2 Fecha": "5/22/2026", "S3 Fecha": "5/27/2026", "info": "Alerta verde, riesgo nulo a bajo y estable", "Acciones": "🎣✅, 🏊‍✅,🛶 ✅" }, "geometry": { "type": "Point", "coordinates": [ -59.0755, -36.009417 ] } },
{ "type": "Feature", "properties": { "CodPunto": "SANB", "Nombre": "San Bartolo. Balneario Municipal Leandro N. Alem_Leandro N. Alem", "Municipio": "Leandro N. Alem", "Tipo": "Laguna", "Laguna": "Laguna San Bartolo Balneario Municipal Leandro Alem", "Alerta": 2, "S2 Fecha": "5/22/2026", "S3 Fecha": "5/27/2026", "info": "Alerta amarillo, riesgo bajo a moderado, en disminución", "Acciones": "🎣✅, 🐟🚫, 🏊⚠️,🛶⚠, 🚱️" }, "geometry": { "type": "Point", "coordinates": [ -61.48145927, -34.45842063 ] } },
{ "type": "Feature", "properties": { "CodPunto": "CCHI", "Nombre": "Chis Chis_Lezama", "Municipio": "Lezama", "Tipo": "Laguna", "Laguna": "Laguna Chis Chis", "Alerta": 4, "S2 Fecha": "5/22/2026", "S3 Fecha": "5/27/2026", "info": "Alerta roja, riesgo alto, estable", "Acciones": "🎣🚫, 🐟🚫, 🏊🚫,🛶🚫, 🚱️" }, "geometry": { "type": "Point", "coordinates": [ -57.99055982, -35.76321275 ] } },
{ "type": "Feature", "properties": { "CodPunto": "CHIS", "Nombre": "Chis Chis 2_Lezama", "Municipio": "Lezama", "Tipo": "Laguna", "Laguna": "Laguna Chis Chis", "Alerta": 4, "S2 Fecha": null, "S3 Fecha": "5/27/2026", "info": "Alerta roja, riesgo alto, estable", "Acciones": "🎣🚫, 🐟🚫, 🏊🚫,🛶🚫, 🚱️" }, "geometry": { "type": "Point", "coordinates": [ -57.94830023, -35.76032928 ] } },
{ "type": "Feature", "properties": { "CodPunto": "BARRC", "Nombre": "las Barrancas_Lezama", "Municipio": "Lezama", "Tipo": "Laguna", "Laguna": "Laguna Las Barrancas", "Alerta": 4, "S2 Fecha": "5/22/2026", "S3 Fecha": "5/27/2026", "info": "Alerta roja, riesgo alto, en disminución", "Acciones": "🎣🚫, 🐟🚫, 🏊🚫,🛶🚫, 🚱️" }, "geometry": { "type": "Point", "coordinates": [ -58.04931927, -35.89171532 ] } },
{ "type": "Feature", "properties": { "CodPunto": "TABL", "Nombre": "la Tablilla_Lezama", "Municipio": "Lezama", "Tipo": "Laguna", "Laguna": "Laguna La Tablilla", "Alerta": 4, "S2 Fecha": "5/22/2026", "S3 Fecha": "5/27/2026", "info": "Alerta roja, riesgo alto, en disminución", "Acciones": "🎣🚫, 🐟🚫, 🏊🚫,🛶🚫, 🚱️" }, "geometry": { "type": "Point", "coordinates": [ -58.03739535, -35.80841501 ] } },
{ "type": "Feature", "properties": { "CodPunto": "LOBO", "Nombre": "de Lobos,_Lobos", "Municipio": "Lobos", "Tipo": "Laguna", "Laguna": "Laguna De Lobos", "Alerta": 4, "S2 Fecha": "5/22/2026", "S3 Fecha": "5/27/2026", "info": "Alerta roja, riesgo alto, estable", "Acciones": "🎣🚫, 🐟🚫, 🏊🚫,🛶🚫, 🚱️" }, "geometry": { "type": "Point", "coordinates": [ -59.12091231, -35.28236937 ] } },
{ "type": "Feature", "properties": { "CodPunto": "ATAL", "Nombre": "Rio de La Plata Atalaya_Magdalena", "Municipio": "Magdalena", "Tipo": "Rio", "Laguna": "Rio De La Plata", "Alerta": 1, "S2 Fecha": "5/22/2026", "S3 Fecha": "5/26/2026", "info": "Alerta verde, riesgo nulo a bajo y estable", "Acciones": "🎣✅, 🏊‍✅,🛶 ✅" }, "geometry": { "type": "Point", "coordinates": [ -57.52590481, -35.00115326 ] } },
{ "type": "Feature", "properties": { "CodPunto": "MAGD", "Nombre": "Rio de La Plata Magdalena_Magdalena", "Municipio": "Magdalena", "Tipo": "Rio", "Laguna": "Rio De La Plata", "Alerta": 1, "S2 Fecha": "5/22/2026", "S3 Fecha": "5/26/2026", "info": "Alerta verde, riesgo nulo a bajo y estable", "Acciones": "🎣✅, 🏊‍✅,🛶 ✅" }, "geometry": { "type": "Point", "coordinates": [ -57.49544978, -35.01544081 ] } },
{ "type": "Feature", "properties": { "CodPunto": "KHUI", "Nombre": "Kakel Huincul_Maipu", "Municipio": "Maipu", "Tipo": "Laguna", "Laguna": "Kakel Huincul", "Alerta": 1, "S2 Fecha": null, "S3 Fecha": "5/27/2026", "info": "Alerta verde, riesgo nulo a bajo y estable", "Acciones": "🎣✅, 🏊‍✅,🛶 ✅" }, "geometry": { "type": "Point", "coordinates": [ -57.77552522, -36.79315564 ] } },
{ "type": "Feature", "properties": { "CodPunto": "YAM1", "Nombre": "Yamahuida_Maipu", "Municipio": "Maipu", "Tipo": "Laguna", "Laguna": "Laguna Yamahuida", "Alerta": 1, "S2 Fecha": null, "S3 Fecha": "5/27/2026", "info": "Alerta verde, riesgo nulo a bajo y estable", "Acciones": "🎣✅, 🏊‍✅,🛶 ✅" }, "geometry": { "type": "Point", "coordinates": [ -57.70591791, -36.87387893 ] } },
{ "type": "Feature", "properties": { "CodPunto": "MCHIC", "Nombre": "MarChiquita_Costa", "Municipio": "Mar Chiquita", "Tipo": "Laguna", "Laguna": "MarChiquita MarChiquita", "Alerta": 1, "S2 Fecha": null, "S3 Fecha": "5/27/2026", "info": "Alerta verde, riesgo nulo a bajo y estable", "Acciones": "🎣✅, 🏊‍✅,🛶 ✅" }, "geometry": { "type": "Point", "coordinates": [ -57.39166781548176, -37.66800158551009 ] } },
{ "type": "Feature", "properties": { "CodPunto": "MONTE", "Nombre": "San Miguel del Monte_Monte", "Municipio": "Monte", "Tipo": "Laguna", "Laguna": "San Miguel Del Monte", "Alerta": 4, "S2 Fecha": "5/22/2026", "S3 Fecha": "5/27/2026", "info": "Alerta roja, riesgo alto, estable", "Acciones": "🎣🚫, 🐟🚫, 🏊🚫,🛶🚫, 🚱️" }, "geometry": { "type": "Point", "coordinates": [ -58.805472, -35.461583 ] } },
{ "type": "Feature", "properties": { "CodPunto": "SALB1", "Nombre": "Canal Salado en Belgrano 1_Monte", "Municipio": "Monte", "Tipo": "Canal", "Laguna": "Canal Salado En Belgrano", "Alerta": 4, "S2 Fecha": "5/22/2026", "S3 Fecha": "5/27/2026", "info": "Alerta roja, riesgo alto, estable", "Acciones": "🎣🚫, 🐟🚫, 🏊🚫,🛶🚫, 🚱️" }, "geometry": { "type": "Point", "coordinates": [ -58.49660224, -35.74848197 ] } },
{ "type": "Feature", "properties": { "CodPunto": "SALM", "Nombre": "Rio Saldao Puente R41_Monte", "Municipio": "Monte", "Tipo": "Rio", "Laguna": "Rio Salado Puente Ruta CuarentaYuno", "Alerta": 1, "S2 Fecha": "5/22/2026", "S3 Fecha": "5/27/2026", "info": "Alerta verde, riesgo nulo a bajo y estable", "Acciones": "🎣✅, 🏊‍✅,🛶 ✅" }, "geometry": { "type": "Point", "coordinates": [ -58.53728428, -35.72615944 ] } },
{ "type": "Feature", "properties": { "CodPunto": "SAGRAN", "Nombre": "Sauce Grande_Monte Hermoso", "Municipio": "Monte Hermoso", "Tipo": "Laguna", "Laguna": "Laguna Sauce Grande", "Alerta": 3, "S2 Fecha": "5/25/2026", "S3 Fecha": "5/27/2026", "info": "Alerta naranja, riesgo moderado a alto, estable", "Acciones": "🎣🚫, 🐟🚫, 🏊🚫,🛶🚫, 🚱️" }, "geometry": { "type": "Point", "coordinates": [ -61.383083, -38.934333 ] } },
{ "type": "Feature", "properties": { "CodPunto": "DROG", "Nombre": "Dique Roggero_Moreno", "Municipio": "Moreno", "Tipo": "Dique", "Laguna": "Dique Roggero", "Alerta": 1, "S2 Fecha": "5/22/2026", "S3 Fecha": "5/27/2026", "info": "Alerta verde, riesgo nulo a bajo y estable", "Acciones": "🎣✅, 🏊‍✅,🛶 ✅" }, "geometry": { "type": "Point", "coordinates": [ -58.86546382, -34.679654 ] } },
{ "type": "Feature", "properties": { "CodPunto": "CPNAV", "Nombre": "Club de Pesca Navarro", "Municipio": "Navarro", "Tipo": "Laguna", "Laguna": "Laguna Navarro", "Alerta": 2, "S2 Fecha": "5/22/2026", "S3 Fecha": "5/27/2026", "info": "Alerta amarillo, riesgo bajo a moderado, en disminución", "Acciones": "🎣✅, 🐟🚫, 🏊⚠️,🛶⚠, 🚱️" }, "geometry": { "type": "Point", "coordinates": [ -59.286909327885887, -35.012444336128098 ] } },
{ "type": "Feature", "properties": { "CodPunto": "CANIAD", "Nombre": "cañadon_Pehuajo", "Municipio": "Pehuajo", "Tipo": "Laguna", "Laguna": "Laguna Caniadon", "Alerta": 2, "S2 Fecha": "5/22/2026", "S3 Fecha": "5/27/2026", "info": "Alerta amarillo, riesgo bajo a moderado, en disminución", "Acciones": "🎣✅, 🐟🚫, 🏊⚠️,🛶⚠, 🚱️" }, "geometry": { "type": "Point", "coordinates": [ -61.84809208, -35.76604051 ] } },
{ "type": "Feature", "properties": { "CodPunto": "LASAL", "Nombre": "la Salada, Pehuajo,_Pehuajo", "Municipio": "Pehuajo", "Tipo": "Laguna", "Laguna": "Laguna La Salada Pehuajo", "Alerta": 3, "S2 Fecha": "5/22/2026", "S3 Fecha": "5/27/2026", "info": "Alerta naranja, riesgo moderado a alto, en disminución", "Acciones": "🎣🚫, 🐟🚫, 🏊🚫,🛶🚫, 🚱️" }, "geometry": { "type": "Point", "coordinates": [ -61.90826889, -35.78543081 ] } },
{ "type": "Feature", "properties": { "CodPunto": "PEJEC", "Nombre": "Rio de La Plata Club Pejerrey_Quilmes", "Municipio": "Quilmes", "Tipo": "Rio", "Laguna": "Rio De La Plata", "Alerta": 1, "S2 Fecha": "5/22/2026", "S3 Fecha": "5/26/2026", "info": "Alerta verde, riesgo nulo a bajo y estable", "Acciones": "🎣✅, 🏊‍✅,🛶 ✅" }, "geometry": { "type": "Point", "coordinates": [ -58.20996141, -34.70172 ] } },
{ "type": "Feature", "properties": { "CodPunto": "RAMPAR", "Nombre": "Bajada Calle Gomendio", "Municipio": "Ramallo", "Tipo": "Rio", "Laguna": "Rio Parana", "Alerta": 1, "S2 Fecha": "5/22/2026", "S3 Fecha": "5/27/2026", "info": "Alerta verde, riesgo nulo a bajo y estable", "Acciones": "🎣✅, 🏊‍✅,🛶 ✅" }, "geometry": { "type": "Point", "coordinates": [ -59.991528145318817, -33.478637394002334 ] } },
{ "type": "Feature", "properties": { "CodPunto": "CZ1", "Nombre": "Cuero de Zorro 1_Rivadavia", "Municipio": "Rivadavia", "Tipo": "Laguna", "Laguna": "Cuero De Zorro", "Alerta": 2, "S2 Fecha": "5/25/2026", "S3 Fecha": "5/27/2026", "info": "Alerta amarillo, riesgo bajo a moderado, en aumento", "Acciones": "🎣✅, 🐟🚫, 🏊⚠️,🛶⚠, 🚱️" }, "geometry": { "type": "Point", "coordinates": [ -62.91277592, -35.75534241 ] } },
{ "type": "Feature", "properties": { "CodPunto": "RSALRP", "Nombre": "Rio Salado_RPerez", "Municipio": "Roque Perez", "Tipo": "Rio", "Laguna": "Rio Salado", "Alerta": 3, "S2 Fecha": "5/22/2026", "S3 Fecha": "5/27/2026", "info": "Alerta naranja, riesgo moderado a alto, estable", "Acciones": "🎣🚫, 🐟🚫, 🏊🚫,🛶🚫, 🚱️" }, "geometry": { "type": "Point", "coordinates": [ -59.32361902, -35.37374897 ] } },
{ "type": "Feature", "properties": { "CodPunto": "NESP", "Nombre": "Nueva Esperanza_San Fernando", "Municipio": "San Fernando", "Tipo": "Rio", "Laguna": "Rio Carabelas Grande En Nueva Esperanza", "Alerta": 1, "S2 Fecha": "5/22/2026", "S3 Fecha": "5/27/2026", "info": "Alerta verde, riesgo nulo a bajo y estable", "Acciones": "🎣✅, 🏊‍✅,🛶 ✅" }, "geometry": { "type": "Point", "coordinates": [ -58.783194, -34.108083 ] } },
{ "type": "Feature", "properties": { "CodPunto": "PNAUT", "Nombre": "Parque Nautico San Fernando_San Fernando", "Municipio": "San Fernando", "Tipo": "Rio", "Laguna": "Parque Nautico San Fernando", "Alerta": 1, "S2 Fecha": "5/22/2026", "S3 Fecha": "5/27/2026", "info": "Alerta verde, riesgo nulo a bajo y estable", "Acciones": "🎣✅, 🏊‍✅,🛶 ✅" }, "geometry": { "type": "Point", "coordinates": [ -58.53016266, -34.44189987 ] } },
{ "type": "Feature", "properties": { "CodPunto": "TAN1", "Nombre": "Dique Tandil_Tandil", "Municipio": "Tandil", "Tipo": "Dique", "Laguna": "Dique Tandil", "Alerta": 2, "S2 Fecha": "5/22/2026", "S3 Fecha": "5/27/2026", "info": "Alerta amarillo, riesgo bajo a moderado, estable", "Acciones": "🎣✅, 🐟🚫, 🏊⚠️,🛶⚠, 🚱️" }, "geometry": { "type": "Point", "coordinates": [ -59.130285, -37.34456748 ] } },
{ "type": "Feature", "properties": { "CodPunto": "ABRV", "Nombre": "AVV (Arroyo Abravieja)_Tigre", "Municipio": "Tigre", "Tipo": "Arroyo", "Laguna": "Avv Arroyo Abravieja", "Alerta": 1, "S2 Fecha": "5/22/2026", "S3 Fecha": "5/27/2026", "info": "Alerta verde, riesgo nulo a bajo y estable", "Acciones": "🎣✅, 🏊‍✅,🛶 ✅" }, "geometry": { "type": "Point", "coordinates": [ -58.557389, -34.411222 ] } },
{ "type": "Feature", "properties": { "CodPunto": "GELVEZ", "Nombre": "D5 (Arroyo Gelvez)_Tigre", "Municipio": "Tigre", "Tipo": "Arroyo", "Laguna": "Arroyo Gelvez", "Alerta": 1, "S2 Fecha": "5/22/2026", "S3 Fecha": "5/27/2026", "info": "Alerta verde, riesgo nulo a bajo y estable", "Acciones": "🎣✅, 🏊‍✅,🛶 ✅" }, "geometry": { "type": "Point", "coordinates": [ -58.59217821, -34.36870564 ] } },
{ "type": "Feature", "properties": { "CodPunto": "ANQ", "Nombre": "RA (Rio Anquetera)_Tigre", "Municipio": "Tigre", "Tipo": "Rio", "Laguna": "Rio Anquetera", "Alerta": 1, "S2 Fecha": "5/22/2026", "S3 Fecha": "5/27/2026", "info": "Alerta verde, riesgo nulo a bajo y estable", "Acciones": "🎣✅, 🏊‍✅,🛶 ✅" }, "geometry": { "type": "Point", "coordinates": [ -58.583167, -34.318306 ] } },
{ "type": "Feature", "properties": { "CodPunto": "RCAP", "Nombre": "RCARA (Rio Carapachay)_Tigre", "Municipio": "Tigre", "Tipo": "Rio", "Laguna": "Rio Carapachay", "Alerta": 1, "S2 Fecha": "5/22/2026", "S3 Fecha": "5/27/2026", "info": "Alerta verde, riesgo nulo a bajo y estable", "Acciones": "🎣✅, 🏊‍✅,🛶 ✅" }, "geometry": { "type": "Point", "coordinates": [ -58.62675, -34.361611 ] } },
{ "type": "Feature", "properties": { "CodPunto": "PERLA", "Nombre": "RSALP (Arroyo La Perla y Rio Sarmiento)_Tigre", "Municipio": "Tigre", "Tipo": "Arroyo", "Laguna": "Arroyo La Perla Intereseccion Rio Sarmiento", "Alerta": 1, "S2 Fecha": "5/22/2026", "S3 Fecha": "5/27/2026", "info": "Alerta verde, riesgo nulo a bajo y estable", "Acciones": "🎣✅, 🏊‍✅,🛶 ✅" }, "geometry": { "type": "Point", "coordinates": [ -58.558833, -34.382361 ] } },
{ "type": "Feature", "properties": { "CodPunto": "SARCUR", "Nombre": "RSARC (Rio Sarmiento entre Arroyo Reyes y Curubica)_Tigre", "Municipio": "Tigre", "Tipo": "Rio", "Laguna": "Rio Sarmiento Entre Arroyo Reyes Arroyo Curubica", "Alerta": 1, "S2 Fecha": "5/22/2026", "S3 Fecha": "5/27/2026", "info": "Alerta verde, riesgo nulo a bajo y estable", "Acciones": "🎣✅, 🏊‍✅,🛶 ✅" }, "geometry": { "type": "Point", "coordinates": [ -58.57761458, -34.38570002 ] } },
{ "type": "Feature", "properties": { "CodPunto": "DLP2", "Nombre": "Dique Las Piedras 2_Tornquist", "Municipio": "Tornquist", "Tipo": "Dique", "Laguna": "Dique Las Piedras", "Alerta": 2, "S2 Fecha": "5/25/2026", "S3 Fecha": "5/27/2026", "info": "Alerta amarillo, riesgo bajo a moderado, en disminución", "Acciones": "🎣✅, 🐟🚫, 🏊⚠️,🛶⚠, 🚱️" }, "geometry": { "type": "Point", "coordinates": [ -61.75836664, -38.37272735 ] } },
{ "type": "Feature", "properties": { "CodPunto": "CZ2", "Nombre": "Cuero de Zorro 2_Trenque Lauquen", "Municipio": "Trenque Lauquen", "Tipo": "Laguna", "Laguna": "Cuero De Zorro", "Alerta": 1, "S2 Fecha": "5/25/2026", "S3 Fecha": "5/27/2026", "info": "Alerta verde, riesgo nulo a bajo y estable", "Acciones": "🎣✅, 🏊‍✅,🛶 ✅" }, "geometry": { "type": "Point", "coordinates": [ -62.90764975, -35.78476218 ] } },
{ "type": "Feature", "properties": { "CodPunto": "HINOJO", "Nombre": "Hinojo_Trenque Lauquen", "Municipio": "Trenque Lauquen", "Tipo": "Laguna", "Laguna": "Laguna Hinojo", "Alerta": 4, "S2 Fecha": "5/22/2026", "S3 Fecha": "5/27/2026", "info": "Alerta roja, riesgo alto, en disminución", "Acciones": "🎣🚫, 🐟🚫, 🏊🚫,🛶🚫, 🚱️" }, "geometry": { "type": "Point", "coordinates": [ -62.49421275, -35.9256205 ] } },
{ "type": "Feature", "properties": { "CodPunto": "TUN1", "Nombre": "Las Tunas 1_Trenque Lauquen", "Municipio": "Trenque Lauquen", "Tipo": "Laguna", "Laguna": "Laguna Las Tunas", "Alerta": 1, "S2 Fecha": "5/22/2026", "S3 Fecha": "5/27/2026", "info": "Alerta verde, riesgo nulo a bajo y estable", "Acciones": "🎣✅, 🏊‍✅,🛶 ✅" }, "geometry": { "type": "Point", "coordinates": [ -62.43452697, -35.97278686 ] } },
{ "type": "Feature", "properties": { "CodPunto": "TUN2", "Nombre": "Las Tunas 2_Trenque Lauquen", "Municipio": "Trenque Lauquen", "Tipo": "Laguna", "Laguna": "Laguna Las Tunas", "Alerta": 2, "S2 Fecha": "5/22/2026", "S3 Fecha": "5/27/2026", "info": "Alerta amarillo, riesgo bajo a moderado, en disminución", "Acciones": "🎣✅, 🐟🚫, 🏊⚠️,🛶⚠, 🚱️" }, "geometry": { "type": "Point", "coordinates": [ -62.50829928, -36.01268186 ] } },
{ "type": "Feature", "properties": { "CodPunto": "TIG", "Nombre": "La_Tigra_TresArroyos", "Municipio": "Tres Arroyos", "Tipo": "Laguna", "Laguna": "La Tigra", "Alerta": 1, "S2 Fecha": "5/22/2026", "S3 Fecha": "5/27/2026", "info": "Alerta verde, riesgo nulo a bajo y estable", "Acciones": "🎣✅, 🏊‍✅,🛶 ✅" }, "geometry": { "type": "Point", "coordinates": [ -60.362609519071299, -38.346405216060184 ] } },
{ "type": "Feature", "properties": { "CodPunto": "VLZ1", "Nombre": "Rio de La Plata 2_Vicente Lopez", "Municipio": "Vicente Lopez", "Tipo": "Rio", "Laguna": "Rio De La Plata", "Alerta": 1, "S2 Fecha": "5/22/2026", "S3 Fecha": "5/26/2026", "info": "Alerta verde, riesgo nulo a bajo y estable", "Acciones": "🎣✅, 🏊‍✅,🛶 ✅" }, "geometry": { "type": "Point", "coordinates": [ -58.46470993, -34.51650797 ] } },
{ "type": "Feature", "properties": { "CodPunto": "CHAS", "Nombre": "Chasico_Villarino", "Municipio": "Villarino", "Tipo": "Laguna", "Laguna": "Chasico", "Alerta": 1, "S2 Fecha": "5/25/2026", "S3 Fecha": "5/27/2026", "info": "Alerta verde, riesgo nulo a bajo y estable", "Acciones": "🎣✅, 🏊‍✅,🛶 ✅" }, "geometry": { "type": "Point", "coordinates": [ -63.07155844, -38.63126477 ] } }
]
}
